0 GOES 13
1 29155U 06018A   13282.38250238 -.00000264  00000-0  10000-3 0  7708
2 29155 000.0754 100.9931 0003346 022.8783 317.3312 01.00277163 27050
0 GOES 13
1 29155U 06018A   13283.37831737 -.00000268  00000-0  10000-3 0  7712
2 29155 000.0781 099.6765 0003326 024.4262 316.5934 01.00276869 27061
0 GOES 13
1 29155U 06018A   13284.26498106 -.00000270  00000-0  10000-3 0  7724
2 29155 000.0803 098.8485 0003315 025.1770 276.7578 01.00276577 27074
0 GOES 13
1 29155U 06018A   13284.26498106 -.00000270  00000-0  10000-3 0  7735
2 29155 000.0803 098.8485 0003315 025.1770 276.7578 01.00276577 27074
0 GOES 13
1 29155U 06018A   13285.27947883 -.00000273  00000-0  10000-3 0  7742
2 29155 000.0818 098.2894 0003313 025.7712 282.9574 01.00276238 27088
0 GOES 13
1 29155U 06018A   13285.27947883 -.00000273  00000-0  10000-3 0  7753
2 29155 000.0818 098.2894 0003313 025.7712 282.9574 01.00276238 27088
0 GOES 13
1 29155U 06018A   13286.29105668 -.00000275  00000-0  10000-3 0  7766
2 29155 000.0841 097.7079 0003301 026.2849 288.2035 01.00275882 27093
0 GOES 13
1 29155U 06018A   13286.29105668 -.00000275  00000-0  10000-3 0  7777
2 29155 000.0841 097.7079 0003301 026.2849 288.2035 01.00275882 27093
0 GOES 13
1 29155U 06018A   13287.36525266 -.00000276  00000-0  10000-3 0  7788
2 29155 000.0864 097.2077 0003287 026.6020 316.1690 01.00275506 27102
0 GOES 13
1 29155U 06018A   13287.36525266 -.00000276  00000-0  10000-3 0  7799
2 29155 000.0864 097.2077 0003287 026.6020 316.1690 01.00275506 27102
0 GOES 13
1 29155U 06018A   13288.36029983 -.00000276  00000-0  10000-3 0  7807
2 29155 000.0883 096.9636 0003280 026.7781 315.4456 01.00275158 27114
0 GOES 13
1 29155U 06018A   13289.36788796 -.00000275  00000-0  10000-3 0  7812
2 29155 000.0904 096.8342 0003275 026.9315 319.1567 01.00274821 27121
0 GOES 13
1 29155U 06018A   13289.36788796 -.00000275  00000-0  10000-3 0  7823
2 29155 000.0904 096.8342 0003275 026.9315 319.1567 01.00274821 27121
0 GOES 13
1 29155U 06018A   13291.34303003 -.00000271  00000-0  10000-3 0  7846
2 29155 000.0945 096.6321 0003254 029.6431 309.6636 01.00274193 27142
0 GOES 13
1 29155U 06018A   13291.34303003 -.00000271  00000-0  10000-3 0  7857
2 29155 000.0945 096.6321 0003254 029.6431 309.6636 01.00274193 27142
0 GOES 13
1 29155U 06018A   13292.41817227 -.00000269  00000-0  10000-3 0  7862
2 29155 000.0968 096.5236 0003250 029.7955 337.7385 01.00273846 27157
0 GOES 13
1 29155U 06018A   13292.41817227 -.00000269  00000-0  10000-3 0  7873
2 29155 000.0968 096.5236 0003250 029.7955 337.7385 01.00273846 27157
0 GOES 13
1 29155U 06018A   13292.41817227 -.00000269  00000-0  10000-3 0  7884
2 29155 000.0968 096.5236 0003250 029.7955 337.7385 01.00273846 27157
0 GOES 13
1 29155U 06018A   13293.32815576 -.00000267  00000-0  10000-3 0  7899
2 29155 000.1011 092.2274 0003465 043.3372 297.0010 01.00274377 27169
0 GOES 13
1 29155U 06018A   13294.33517036 -.00000265  00000-0  10000-3 0  7901
2 29155 000.1031 092.0502 0003478 043.7248 300.3192 01.00274184 27179
0 GOES 13
1 29155U 06018A   13294.33517036 -.00000265  00000-0  10000-3 0  7912
2 29155 000.1031 092.0502 0003478 043.7248 300.3192 01.00274184 27179
0 GOES 13
1 29155U 06018A   13295.46142543 -.00000264  00000-0  10000-3 0  7924
2 29155 000.1048 091.9815 0003468 044.1316 346.5528 01.00273893 27184
0 GOES 13
1 29155U 06018A   13295.46142543 -.00000264  00000-0  10000-3 0  7935
2 29155 000.1048 091.9815 0003468 044.1316 346.5528 01.00273893 27184
